format  = 'OEF2.0'       ! file format
rectype = 'ML'           ! record type (1L/ML)
refsys  = ECLM J2000     ! default reference system
END_OF_HEADER
594938
! Keplerian elements: a, e, i, long. node, arg. peric., mean anomaly
 KEP   2.1859956926871762E+00   0.471266513586621   29.647280093062  115.304765589582  156.127269779942  263.277036549725
 MJD     60200.000000000 TDT
 MAG  18.247  0.150
! Non-gravitational parameters: model used, number of model parameters, dimension
 LSP   0  0    6
! PERIHELION   1.1558091238791210E+00
! APHELION   3.2161822614952311E+00
! ANODE   2.0034031121544715E+00
! DNODE   1.7179110025928596E-01
! MOID   1.6582040268236059E-01
! PERIOD   1.1805173647320241E+03
! PHA F
! VINFTY    15.6449154331046
! U_PAR 0.1
! ORB_TYPE Amor  
! RMS    2.96492E-08   9.89986E-08   9.90580E-06   1.78551E-05   2.06919E-05   8.74418E-06
 COV   8.790769573219951E-16  2.059480756201647E-15 -5.688688942104450E-14
 COV  -1.492444369027067E-14 -2.231103623729184E-13 -1.426576734993612E-13
 COV   9.800720358198681E-15 -1.616397252764929E-13 -2.171823343585886E-13
 COV  -2.837746019356366E-13 -4.010280123756560E-13  9.812489592786124E-11
 COV  -1.411569255393129E-11  2.477984928756512E-11  1.792445025723872E-11
 COV   3.188046161402691E-10 -2.887208423745855E-10  2.401131977859697E-11
 COV   4.281563263543018E-10 -3.896337030348700E-11  7.646072675472740E-11
 COR   1.000000000000000E+00  7.016415369799237E-01 -1.936908631133016E-01
 COR  -2.819177385686001E-02 -3.636680188811893E-01 -5.502530749338627E-01
 COR   1.000000000000000E+00 -1.648274349604935E-01 -1.228664180364294E-01
 COR  -1.385298428468551E-01 -4.632618104343304E-01  1.000000000000000E+00
 COR  -7.980870897816615E-02  1.208948702111515E-01  2.069364666111885E-01
 COR   1.000000000000000E+00 -7.814742149119931E-01  1.537922746051652E-01
 COR   1.000000000000000E+00 -2.153456594399636E-01  1.000000000000000E+00
